*******************************************************************************
JPL/HORIZONS                 501647 (2014 SD224)           2020-Dec-16 20:43:27
Rec #:  501647 (+COV) Soln.date: 2020-Dec-16_05:27:35    # obs: 163 (2014-2020)
 
IAU76/J2000 helio. ecliptic osc. elements (au, days, deg., period=Julian yrs):
 
  EPOCH=  2457740.5 ! 2016-Dec-18.00 (TDB)         Residual RMS= .20566
   EC= .3310749097558752   QR= .6538955609007698   TP= 2457867.3590461793
   OM= 286.4854887235201   W=  277.1378438227532   IN= 4.547686475996104
   A= .9775318199861961    MA= 230.6313158381808   ADIST= 1.301168079071622
   PER= .96651             N= 1.019782857          ANGMOM= .01604859
   DAN= .83599             DDN= .90773             L= 203.6456521
   B= -4.5123689           MOID= .0173851          TP= 2017-Apr-23.8590461793
 
Asteroid physical parameters (km, seconds, rotational period in hours):
   GM= n.a.                RAD= n.a.               ROTPER= n.a.
   H= 22.3                 G= .150                 B-V= n.a.
                           ALBEDO= n.a.            STYP= n.a.
 
ASTEROID comments: 
1: soln ref.= JPL#49, OCC=1
2: source=ORB
*******************************************************************************
 
 
*******************************************************************************
Ephemeris / WWW_USER Wed Dec 16 20:43:27 2020 Pasadena, USA      / Horizons    
*******************************************************************************
Target body name: 501647 (2014 SD224)             {source: JPL#49}
Center body name: Solar System Barycenter (0)     {source: DE431}
Center-site name: BODYCENTRIC
*******************************************************************************
Start time      : A.D. 2014-Jan-01 00:00:00.0000 UT      
Stop  time      : A.D. 2023-Jan-01 00:00:00.0000 UT      
Step-size       : 1440 minutes
*******************************************************************************
Target pole/equ : No model available
Target radii    : (unavailable)                                                
Center geodetic : 0.00000000,0.00000000,0.0000000 {E-lon(deg),Lat(deg),Alt(km)}
Center cylindric: 0.00000000,0.00000000,0.0000000 {E-lon(deg),Dxy(km),Dz(km)}
Center pole/equ : ICRF
Center radii    : (undefined)                                                  
Target primary  : Sun
Vis. interferer : None
Rel. light bend : Sun                             {source: DE431}
Rel. lght bnd GM: 1.3271E+11 km^3/s^2                                          
Small-body perts: Yes                             {source: SB431-N16}
Atmos refraction: NO (AIRLESS)
RA format       : DEG
Time format     : CAL 
EOP file        : eop.201216.p210309                                           
EOP coverage    : DATA-BASED 1962-JAN-20 TO 2020-DEC-16. PREDICTS-> 2021-MAR-08
Units conversion: 1 au= 149597870.700 km, c= 299792.458 km/s, 1 day= 86400.0 s 
Table cut-offs 1: Elevation (-90.0deg=NO ),Airmass     n.a.    , Daylight (NO )
Table cut-offs 2: Solar elongation (  0.0,180.0=NO ),Local Hour Angle( 0.0=NO )
Table cut-offs 3: RA/DEC angular rate (     0.0=NO )                           
*******************************************************************************
Initial IAU76/J2000 heliocentric ecliptic osculating elements (au, days, deg.):
  EPOCH=  2457740.5 ! 2016-Dec-18.00 (TDB)         Residual RMS= .20566        
   EC= .3310749097558752   QR= .6538955609007698   TP= 2457867.3590461793      
   OM= 286.4854887235201   W=  277.1378438227532   IN= 4.547686475996104       
  Equivalent ICRF heliocentric equatorial cartesian coordinates (au, au/d):
   X= 7.605014764809276E-01  Y= 8.520918613833833E-01  Z= 4.563451268046937E-01
  VX=-1.197912817069899E-02 VY= 5.689646718311779E-03 VZ= 1.615176295510686E-03
Asteroid physical parameters (km, seconds, rotational period in hours):        
   GM= n.a.                RAD= n.a.               ROTPER= n.a.                
   H= 22.3                 G= .150                 B-V= n.a.                   
                           ALBEDO= n.a.            STYP= n.a.                  
*******************************************************************************
 Date__(UT)__HR:MN                delta     GlxLon     GlxLat
*************************************************************
$$SOE
 2015-Jun-19 00:00     1.1210277960E+08   2.326124   3.617327
 2015-Jun-20 00:00     1.1291966731E+08   3.240388   2.275125
 2015-Jun-21 00:00     1.1374827961E+08   4.139837   0.951620
 2015-Jun-22 00:00     1.1458780580E+08   5.025588  -0.352998
 2015-Jun-23 00:00     1.1543745636E+08   5.898691  -1.638590
 2015-Jun-24 00:00     1.1629646351E+08   6.760132  -2.905064
 2015-Jun-25 00:00     1.1716408169E+08   7.610837  -4.152370
 2015-Jun-26 00:00     1.1803958783E+08   8.451678  -5.380496
 2015-Jun-27 00:00     1.1892228152E+08   9.283476  -6.589465
 2015-Jun-28 00:00     1.1981148508E+08  10.107009  -7.779328
 2015-Jun-29 00:00     1.2070654352E+08  10.923009  -8.950164
 2015-Jun-30 00:00     1.2160682438E+08  11.732171 -10.102076
 2015-Jul-01 00:00     1.2251172804E+08  12.535162 -11.235198
 2015-Jul-02 00:00     1.2342064551E+08  13.332590 -12.349646
 2015-Jul-03 00:00     1.2433302086E+08  14.125057 -13.445589
 2015-Jul-04 00:00     1.2524830909E+08  14.913129 -14.523197
 2015-Jul-05 00:00     1.2616598604E+08  15.697345 -15.582649
 2015-Jul-06 00:00     1.2708554800E+08  16.478220 -16.624137
 2015-Jul-07 00:00     1.2800651115E+08  17.256245 -17.647857
 2015-Jul-08 00:00     1.2892841108E+08  18.031892 -18.654014
 2015-Jul-09 00:00     1.2985080225E+08  18.805612 -19.642815
 2015-Jul-10 00:00     1.3077325739E+08  19.577837 -20.614472
 2015-Jul-11 00:00     1.3169536701E+08  20.348984 -21.569200
 2015-Jul-12 00:00     1.3261673877E+08  21.119452 -22.507213
 2015-Jul-13 00:00     1.3353699696E+08  21.889626 -23.428728
 2015-Jul-14 00:00     1.3445578193E+08  22.659877 -24.333959
 2015-Jul-15 00:00     1.3537274948E+08  23.430564 -25.223120
 2015-Jul-16 00:00     1.3628757038E+08  24.202032 -26.096424
 2015-Jul-17 00:00     1.3719992975E+08  24.974614 -26.954079
 2015-Jul-18 00:00     1.3810952657E+08  25.748633 -27.796293
 2015-Jul-19 00:00     1.3901607316E+08  26.524402 -28.623269
 2015-Jul-20 00:00     1.3991929461E+08  27.302223 -29.435206
 2015-Jul-21 00:00     1.4081892832E+08  28.082389 -30.232299
 2015-Jul-22 00:00     1.4171472350E+08  28.865182 -31.014739
 2015-Jul-23 00:00     1.4260644070E+08  29.650878 -31.782712
 2015-Jul-24 00:00     1.4349385134E+08  30.439743 -32.536399
 2015-Jul-25 00:00     1.4437673723E+08  31.232033 -33.275976
 2015-Jul-26 00:00     1.4525489021E+08  32.027998 -34.001613
 2015-Jul-27 00:00     1.4612811167E+08  32.827880 -34.713476
 2015-Jul-28 00:00     1.4699621216E+08  33.631912 -35.411726
 2015-Jul-29 00:00     1.4785901100E+08  34.440319 -36.096515
 2015-Jul-30 00:00     1.4871633593E+08  35.253317 -36.767994
 2015-Jul-31 00:00     1.4956802270E+08  36.071117 -37.426304
 2015-Aug-01 00:00     1.5041391474E+08  36.893920 -38.071585
 2015-Aug-02 00:00     1.5125386286E+08  37.721919 -38.703968
 2015-Aug-03 00:00     1.5208772487E+08  38.555299 -39.323580
 2015-Aug-04 00:00     1.5291536531E+08  39.394236 -39.930542
 2015-Aug-05 00:00     1.5373665514E+08  40.238899 -40.524970
 2015-Aug-06 00:00     1.5455147146E+08  41.089446 -41.106974
 2015-Aug-07 00:00     1.5535969723E+08  41.946027 -41.676660
 2015-Aug-08 00:00     1.5616122102E+08  42.808783 -42.234128
 2015-Aug-09 00:00     1.5695593674E+08  43.677844 -42.779472
 2015-Aug-10 00:00     1.5774374344E+08  44.553333 -43.312784
 2015-Aug-11 00:00     1.5852454501E+08  45.435358 -43.834150
 2015-Aug-12 00:00     1.5929825004E+08  46.324020 -44.343649
 2015-Aug-13 00:00     1.6006477156E+08  47.219407 -44.841359
 2015-Aug-14 00:00     1.6082402686E+08  48.121597 -45.327353
 2015-Aug-15 00:00     1.6157593728E+08  49.030655 -45.801699
 2015-Aug-16 00:00     1.6232042804E+08  49.946633 -46.264461
 2015-Aug-17 00:00     1.6305742807E+08  50.869572 -46.715701
 2015-Aug-18 00:00     1.6378686983E+08  51.799499 -47.155476
 2015-Aug-19 00:00     1.6450868914E+08  52.736427 -47.583840
 2015-Aug-20 00:00     1.6522282506E+08  53.680354 -48.000845
 2015-Aug-21 00:00     1.6592921972E+08  54.631267 -48.406539
 2015-Aug-22 00:00     1.6662781816E+08  55.589134 -48.800969
 2015-Aug-23 00:00     1.6731856825E+08  56.553911 -49.184177
 2015-Aug-24 00:00     1.6800142051E+08  57.525538 -49.556206
 2015-Aug-25 00:00     1.6867632802E+08  58.503936 -49.917095
 2015-Aug-26 00:00     1.6934324629E+08  59.489015 -50.266883
 2015-Aug-27 00:00     1.7000213314E+08  60.480664 -50.605607
 2015-Aug-28 00:00     1.7065294862E+08  61.478758 -50.933303
 2015-Aug-29 00:00     1.7129565486E+08  62.483155 -51.250007
 2015-Aug-30 00:00     1.7193021604E+08  63.493696 -51.555753
 2015-Aug-31 00:00     1.7255659822E+08  64.510205 -51.850577
 2015-Sep-01 00:00     1.7317476932E+08  65.532488 -52.134512
 2015-Sep-02 00:00     1.7378469897E+08  66.560338 -52.407595
 2015-Sep-03 00:00     1.7438635848E+08  67.593527 -52.669860
 2015-Sep-04 00:00     1.7497972073E+08  68.631814 -52.921346
 2015-Sep-05 00:00     1.7556476011E+08  69.674940 -53.162089
 2015-Sep-06 00:00     1.7614145243E+08  70.722631 -53.392129
 2015-Sep-07 00:00     1.7670977489E+08  71.774600 -53.611507
 2015-Sep-08 00:00     1.7726970595E+08  72.830542 -53.820265
 2015-Sep-09 00:00     1.7782122532E+08  73.890141 -54.018449
 2015-Sep-10 00:00     1.7836431388E+08  74.953065 -54.206104
 2015-Sep-11 00:00     1.7889895362E+08  76.018974 -54.383282
 2015-Sep-12 00:00     1.7942512761E+08  77.087511 -54.550033
 2015-Sep-13 00:00     1.7994281990E+08  78.158313 -54.706414
 2015-Sep-14 00:00     1.8045201549E+08  79.231006 -54.852481
 2015-Sep-15 00:00     1.8095270031E+08  80.305206 -54.988296
